LEMUR-2-PETERG          
1 42841U 17042S   26068.48235713  .00023240  00000+0  81076-3 0  9993
2 42841  97.3980 253.6596 0003700 341.6938  18.4169 15.29611459473171
STARLINK-34207          
1 64333U 25124S   26068.19702502  .00036165  00000+0  13170-2 0  9995
2 64333  42.9987 124.6182 0000907 246.0271 114.0486 15.27587909 41701
